STARLINK-3356           
1 51133C 22005AF  23024.14354167 -.00038267  00000-0 -23998-2 0   244
2 51133  53.2164  19.2354 0001491  94.5308 266.0208 15.08875143    11
STARLINK-3183           
1 51134C 22005AG  23024.13729167 -.00028545  00000-0 -17901-2 0   245
2 51134  53.2182   9.2603 0001605  82.9068  53.4803 15.08864648    16
STARLINK-3363           
1 51135C 22005AH  23024.13659722 -.00020864  00000-0 -13083-2 0   248
2 51135  53.2160  19.2645 0001503  96.2578 246.5461 15.08858791    18
STARLINK-3253           
1 51136C 22005AJ  23024.14215278 -.00023267  00000-0 -14591-2 0   249
2 51136  53.2152  19.2474 0001256  93.2410 274.5603 15.08858926    16
STARLINK-3180           
1 51137C 22005AK  23024.14423611 -.00014234  00000-0 -89262-3 0   244
2 51137  53.2138  19.2418 0001476  93.3158 351.0036 15.08850472    12
STARLINK-3177           
1 51138C 22005AL  23024.14354167 -.00033454  00000-0 -20978-2 0   247
2 51138  53.2160  19.2388 0001617  87.8928 312.6633 15.08872492    16
STARLINK-3172           
1 51139C 22005AM  23024.14076389 -.00015119  00000-0 -94812-3 0   242
2 51139  53.2154  19.2525 0001352  92.5972  12.8522 15.08851136    19
STARLINK-3175           
1 51140C 22005AN  23024.14493056 -.00009728  00000-0 -60999-3 0   246
2 51140  53.2166  19.2297 0001252  86.8008 341.2900 15.08849612    10
STARLINK-3179           
1 51141C 22005AP  23024.13798611 -.00012101  00000-0 -75880-3 0   245
2 51141  53.2160  19.2623 0001256  87.7628  42.5834 15.08850300    13
STARLINK-3369           
1 51142C 22005AQ  23024.14284722 -.00005467  00000-0 -34287-3 0   243
2 51142  53.2163   9.2414 0001539  90.8735  95.7104 15.08837243    13
STARLINK-3184           
1 51143C 22005AR  23024.14215278 -.00021929  00000-0 -13751-2 0   247
2 51143  53.2167  29.2415 0001289  93.4504 144.5497 15.08859819    17
STARLINK-3185           
1 51144C 22005AS  23024.14215278 -.00016557  00000-0 -10383-2 0   247
2 51144  53.2134  19.2512 0001673  83.7586  49.2360 15.08851706    15
STARLINK-3365           
1 51145C 22005AT  23024.14284722 -.00031442  00000-0 -19716-2 0   247
2 51145  53.2158  29.2370 0001255  93.3121 168.4617 15.08871152    19
STARLINK-3354           
1 51146C 22005AU  23024.13590278 -.00021288  00000-0 -13351-2 0   249
2 51146  53.2155  19.2741 0001342 100.1790 318.8475 15.08856291    14
STARLINK-3352           
1 51147C 22005AV  23024.14076389 -.00028098  00000-0 -17620-2 0   242
2 51147  53.2157  29.2517 0001484  94.0203 116.4256 15.08864737    19
STARLINK-3359           
1 51148C 22005AW  23024.14145833 -.00024506  00000-0 -15368-2 0   241
2 51148  53.2168  29.2448 0001319  94.0964 180.1269 15.08861441    17
STARLINK-3360           
1 51149C 22005AX  23024.14284722 -.00045442  00000-0 -28498-2 0   243
2 51149  53.2171  29.2285 0001296  86.8641 214.9004 15.08881429    17
STARLINK-3357           
1 51150C 22005AY  23024.12340278 -.00014087  00000-0 -88333-3 0   248
2 51150  53.2140  19.3334 0001319  92.2579 338.8324 15.08852553    14
STARLINK-3361           
1 51151C 22005AZ  23024.14006944 -.00035195  00000-0 -22069-2 0   246
2 51151  53.2185  29.2414 0001350  89.8708 236.8133 15.08874622    10
STARLINK-3364           
1 51152C 22005BA  23024.14215278 -.00038323  00000-0 -24032-2 0   247
2 51152  53.2174  29.2383 0001283  86.5702 231.4362 15.08875341    11
STARLINK-3167           
1 51460C 22010E   23024.14215278 -.00007682  00000-0 -48172-3 0   241
2 51460  53.2151 359.2474 0001427  98.5044 144.4917 15.08847226    17
STARLINK-3181           
1 51461C 22010F   23024.14493056 -.00025266  00000-0 -15845-2 0   242
2 51461  53.2148 359.2326 0001132  90.8127  67.2863 15.08861282    10
STARLINK-3166           
1 51462C 22010G   23024.13659722 -.00033209  00000-0 -20827-2 0   248
2 51462  53.2159 359.2693 0001211  93.5818  39.2214 15.08868379    18
STARLINK-3419           
1 51463C 22010H   23024.14215278 -.00015208  00000-0 -95374-3 0   243
2 51463  53.2158 359.2461 0001259  94.6172 208.3886 15.08850007    11
STARLINK-3189           
1 51464C 22010J   23024.14840278 -.00008572  00000-0 -53749-3 0   244
2 51464  53.2159 359.2128 0001327  96.6925 140.2684 15.08848730    17
STARLINK-3401           
1 51465C 22010Z   23024.13381944  .00000086  00000-0  53677-5 0   246
2 51465  53.2174 359.2687 0001675 110.3698  67.4334 15.08836812    12
STARLINK-3178           
1 51467C 22010M   23024.14493056 -.00005769  00000-0 -36176-3 0   245
2 51467  53.2146 359.2377 0001374  97.3837 240.7063 15.08843904    19
STARLINK-3174           
1 51468C 22010N   23024.13798611 -.00021885  00000-0 -13723-2 0   249
2 51468  53.2151 359.2652 0001071  92.1740 148.1837 15.08863277    17
STARLINK-3182           
1 51469C 22010P   23024.14701389 -.00009728  00000-0 -61001-3 0   242
2 51469  53.2150 359.2259 0001457 105.4311 103.9758 15.08849520    16
STARLINK-3415           
1 51472C 22010S   23024.13312500 -.00006620  00000-0 -41501-3 0   249
2 51472  53.2155 359.2869 0000870  79.9384 153.9751 15.08854180    11
STARLINK-3528           
1 51714C 22016A   23024.13868056 -.00026733  00000-0 -16763-2 0   244
2 51714  53.2161  49.2585 0001060  96.6826 152.4432 15.08866111    14
STARLINK-3533           
1 51715C 22016B   23024.14493056 -.00019426  00000-0 -12182-2 0   242
2 51715  53.2154  49.2330 0001254  81.9364 261.1686 15.08857592    16
STARLINK-3543           
1 51716C 22016C   23024.12618056 -.00021370  00000-0 -13400-2 0   245
2 51716  53.2149  49.3102 0001352  88.4540 112.7403 15.08862001    15
STARLINK-3445           
1 51717C 22016D   23024.13868056 -.00031764  00000-0 -19919-2 0   243
2 51717  53.2158  49.2569 0001355  99.4429 189.6918 15.08868770    16
STARLINK-3546           
1 51718C 22016E   23024.14701389 -.00021538  00000-0 -13505-2 0   243
2 51718  53.2165  49.2084 0001477  87.8582 326.5576 15.08861553    17
STARLINK-3540           
1 51719C 22016F   23024.14284722 -.00018384  00000-0 -11527-2 0   248
2 51719  53.2147  49.2443 0001291  86.1533 265.6234 15.08859705    19
STARLINK-3526           
1 51720C 22016G   23024.13937500 -.00036960  00000-0 -23175-2 0   240
2 51720  53.2160  49.2536 0001481  87.2133 305.6890 15.08878194    14
STARLINK-3524           
1 51721C 22016H   23024.13659722  .00012856  00000-0  80630-3 0   244
2 51721  53.2156  49.2618 0001504  95.6010 242.2080 15.08820374    18
STARLINK-3535           
1 51722C 22016J   23024.14145833 -.00040237  00000-0 -25230-2 0   249
2 51722  53.2160  49.2436 0001352  86.9015 357.3206 15.08881444    14
STARLINK-3531           
1 51723C 22016K   23024.12340278 -.00004468  00000-0 -27265-4 0   246
2 51723  53.2049 266.4475 0000754  93.3526  52.0685 15.76717448    18
STARLINK-3529           
1 51724C 22016L   23024.14354167 -.00030965  00000-0 -19416-2 0   249
2 51724  53.2144  49.2387 0001331  92.6611  42.8847 15.08872374    15
STARLINK-3522           
1 51725C 22016M   23024.13520833 -.00023110  00000-0 -14491-2 0   246
2 51725  53.2160  49.2692 0001283  89.6679 300.5847 15.08862765    16
STARLINK-3527           
1 51726C 22016N   23024.13937500 -.00040641  00000-0 -25477-2 0   244
2 51726  53.2151  39.2548 0001250 110.6819 137.1600 15.08890383    19
STARLINK-3532           
1 51727C 22016P   23024.14631944 -.00026254  00000-0 -16465-2 0   240
2 51727  53.2173  49.2148 0001394  92.8979  37.7460 15.08859941    12
STARLINK-3448           
1 51728C 22016Q   23024.14215278 -.00033957  00000-0 -21292-2 0   241
2 51728  53.2132  39.2507 0001311  91.9462 211.0519 15.08875868    10
STARLINK-3523           
1 51729C 22016R   23024.15604167 -.00002997  00000-0 -18790-3 0   242
2 51729  53.2158  39.1888 0003215  16.6526 301.9088 15.08844815    18
STARLINK-3530           
1 51730C 22016S   23024.14006944 -.00023317  00000-0 -14621-2 0   249
2 51730  53.2147  39.2510 0001310  96.1883 235.4907 15.08862553    14
STARLINK-3514           
1 51731C 22016T   23024.14215278 -.00035998  00000-0 -22572-2 0   244
2 51731  53.2151  39.2430 0001252  92.4231 190.5828 15.08876028    17
STARLINK-3518           
1 51732C 22016U   23024.14631944 -.00032753  00000-0 -20538-2 0   243
2 51732  53.2140  39.2283 0001111  93.9794 291.6638 15.08873024    11
STARLINK-3525           
1 51733C 22016V   23024.13590278 -.00025423  00000-0 -15940-2 0   244
2 51733  53.2153  39.2717 0001487  92.8331 196.1845 15.08869374    11
STARLINK-3450           
1 51734C 22016W   23024.13868056 -.00023930  00000-0 -15005-2 0   240
2 51734  53.2152  39.2623 0001332  98.8289 305.2898 15.08864113    11
STARLINK-3517           
1 51735C 22016X   23024.14423611 -.00024698  00000-0 -15487-2 0   242
2 51735  53.2156  39.2314 0001189  96.8672 297.4528 15.08863241    10
STARLINK-3447           
1 51736C 22016Y   23024.13798611 -.00035696  00000-0 -22382-2 0   249
2 51736  53.2175  39.2552 0001496  92.2263 348.1187 15.08876642    17
STARLINK-3509           
1 51737C 22016Z   23024.14284722  .00005413  00000-0  33959-3 0   249
2 51737  53.2167  39.2388 0001260  80.8830 325.9576 15.08819207    17
STARLINK-3515           
1 51738C 22016AA  23024.14562500 -.00025501  00000-0 -15992-2 0   241
2 51738  53.2153  39.2298 0001143  90.6218  71.2468 15.08861919    10
STARLINK-3516           
1 51739C 22016AB  23024.14076389 -.00067027  00000-0 -42034-2 0   243
2 51739  53.2149  39.2521 0001492  94.6100 340.8738 15.08902340    15
STARLINK-3500           
1 51740C 22016AC  23024.14493056 -.00034050  00000-0 -21352-2 0   249
2 51740  53.2164  39.2289 0001333  80.9720 117.1334 15.08872571    14
STARLINK-3520           
1 51741C 22016AD  23024.14215278 -.00037221  00000-0 -23341-2 0   241
2 51741  53.2153  39.2447 0001285  87.0291  35.9755 15.08874994    11
STARLINK-3521           
1 51742C 22016AE  23024.14215278 -.00029894  00000-0 -18745-2 0   241
2 51742  53.2154  39.2426 0001129  91.9505 111.0443 15.08870863    10
